*******************************************************************************
Ephemeris / WWW_USER Mon Mar 24 07:50:08 2025 Pasadena, USA      / Horizons    
*******************************************************************************
Target body name: (2018 TS1)                      {source: JPL#6}
Center body name: Earth (399)                     {source: DE441}
Center-site name: Mauna Kea
*******************************************************************************
Start time      : A.D. 2019-Jan-16 04:13:00.0000 UT      
Stop  time      : A.D. 2019-Jan-16 16:49:00.0000 UT      
Step-size       : 1 minutes
*******************************************************************************
Target pole/equ : undefined
Target radii    : undefined                                                    
Center geodetic : 204.5278, 19.8260847, 4.21024   {E-lon(deg),Lat(deg),Alt(km)}
Center cylindric: 204.5278, 6006.35451, 2151.0229 {E-lon(deg),Dxy(km),Dz(km)}
Center pole/equ : ITRF93                          {East-longitude positive}
Center radii    : 6378.137, 6378.137, 6356.752 km {Equator_a, b, pole_c}       
Target primary  : Sun
Vis. interferer : MOON (R_eq= 1737.400) km        {source: DE441}
Rel. light bend : Sun                             {source: DE441}
Rel. lght bnd GM: 1.3271E+11 km^3/s^2                                          
Small-body perts: Yes                             {source: SB441-N16}
Atmos refraction: NO (AIRLESS)
RA format       : HMS
Time format     : CAL 
Calendar mode   : Mixed Julian/Gregorian
RTS-only print  : NO       
EOP file        : eop.250321.p250617                                           
EOP coverage    : DATA-BASED 1962-JAN-20 TO 2025-MAR-21. PREDICTS-> 2025-JUN-16
Units conversion: 1 au= 149597870.700 km, c= 299792.458 km/s, 1 day= 86400.0 s 
Table cut-offs 1: Elevation (-90.0deg=NO ),Airmass (>38.000=NO), Daylight (YES)
Table cut-offs 2: Solar elongation (  0.0,180.0=NO ),Local Hour Angle( 0.0=NO )
Table cut-offs 3: RA/DEC angular rate (     0.0=NO )                           
*******************************************************************************
Initial IAU76/J2000 heliocentric ecliptic osculating elements (au, days, deg.):
  EPOCH=  2458397.5 ! 2018-Oct-06.00 (TDB)         Residual RMS= .30565        
   EC= .4232280089037878   QR= .7951431742456924   TP= 2458457.9340165281      
   OM= 356.454891650426    W=  97.01949783285009   IN= 2.243887958983723       
  Equivalent ICRF heliocentric cartesian coordinates (au, au/d):
   X= 1.037748414669454E+00  Y= 2.036665248544260E-01  Z= 1.007134111375925E-01
  VX=-1.028941390482545E-02 VY= 1.387292408111162E-02 VZ= 6.642652492995660E-03
Asteroid physical parameters (km, seconds, rotational period in hours):        
   GM= n.a.                RAD= n.a.               ROTPER= n.a.                
   H= 25.7                 G= .150                 B-V= n.a.                   
                           ALBEDO= n.a.            STYP= n.a.                  
*******************************************************************************
 Date__(UT)__HR:MN     R.A._________(ICRF)_________DEC
******************************************************
$$SOE
 2019-Jan-16 06:16  m  15 06 34.458043 -16 19 28.67452
 2019-Jan-16 06:17  m  15 06 34.555935 -16 19 29.22051
 2019-Jan-16 06:18  m  15 06 34.653824 -16 19 29.76657
 2019-Jan-16 06:19  m  15 06 34.751711 -16 19 30.31268
 2019-Jan-16 06:20  m  15 06 34.849595 -16 19 30.85886
 2019-Jan-16 06:21  m  15 06 34.947476 -16 19 31.40510
 2019-Jan-16 06:22  m  15 06 35.045354 -16 19 31.95140
 2019-Jan-16 06:23  m  15 06 35.143230 -16 19 32.49776
 2019-Jan-16 06:24  m  15 06 35.241103 -16 19 33.04418
 2019-Jan-16 06:25  m  15 06 35.338972 -16 19 33.59066
 2019-Jan-16 06:26  m  15 06 35.436839 -16 19 34.13721
 2019-Jan-16 06:27  m  15 06 35.534703 -16 19 34.68382
 2019-Jan-16 06:28  m  15 06 35.632563 -16 19 35.23049
 2019-Jan-16 06:29  m  15 06 35.730420 -16 19 35.77722
 2019-Jan-16 06:30  m  15 06 35.828274 -16 19 36.32401
 2019-Jan-16 06:31  m  15 06 35.926124 -16 19 36.87086
 2019-Jan-16 06:32  m  15 06 36.023971 -16 19 37.41778
 2019-Jan-16 06:33  m  15 06 36.121814 -16 19 37.96475
 2019-Jan-16 06:34  m  15 06 36.219654 -16 19 38.51179
 2019-Jan-16 06:35  m  15 06 36.317490 -16 19 39.05889
 2019-Jan-16 06:36  m  15 06 36.415322 -16 19 39.60604
 2019-Jan-16 06:37  m  15 06 36.513150 -16 19 40.15326
 2019-Jan-16 06:38  m  15 06 36.610974 -16 19 40.70054
 2019-Jan-16 06:39  m  15 06 36.708795 -16 19 41.24789
 2019-Jan-16 06:40  m  15 06 36.806611 -16 19 41.79529
 2019-Jan-16 06:41  m  15 06 36.904423 -16 19 42.34275
 2019-Jan-16 06:42  m  15 06 37.002231 -16 19 42.89027
 2019-Jan-16 06:43  m  15 06 37.100035 -16 19 43.43786
 2019-Jan-16 06:44  m  15 06 37.197834 -16 19 43.98550
 2019-Jan-16 06:45  m  15 06 37.295629 -16 19 44.53321
 2019-Jan-16 06:46  m  15 06 37.393419 -16 19 45.08097
 2019-Jan-16 06:47  m  15 06 37.491205 -16 19 45.62880
 2019-Jan-16 06:48  m  15 06 37.588986 -16 19 46.17668
 2019-Jan-16 06:49  m  15 06 37.686762 -16 19 46.72463
 2019-Jan-16 06:50  m  15 06 37.784534 -16 19 47.27263
 2019-Jan-16 06:51  m  15 06 37.882301 -16 19 47.82070
 2019-Jan-16 06:52  m  15 06 37.980063 -16 19 48.36882
 2019-Jan-16 06:53  m  15 06 38.077820 -16 19 48.91701
 2019-Jan-16 06:54  m  15 06 38.175572 -16 19 49.46525
 2019-Jan-16 06:55  m  15 06 38.273318 -16 19 50.01356
 2019-Jan-16 06:56  m  15 06 38.371060 -16 19 50.56192
 2019-Jan-16 06:57  m  15 06 38.468796 -16 19 51.11034
 2019-Jan-16 06:58  m  15 06 38.566527 -16 19 51.65883
 2019-Jan-16 06:59  m  15 06 38.664252 -16 19 52.20737
 2019-Jan-16 07:00  m  15 06 38.761972 -16 19 52.75597
 2019-Jan-16 07:01  m  15 06 38.859687 -16 19 53.30463
 2019-Jan-16 07:02  m  15 06 38.957396 -16 19 53.85335
 2019-Jan-16 07:03  m  15 06 39.055099 -16 19 54.40213
 2019-Jan-16 07:04  m  15 06 39.152796 -16 19 54.95096
 2019-Jan-16 07:05  m  15 06 39.250487 -16 19 55.49986
 2019-Jan-16 07:06  m  15 06 39.348173 -16 19 56.04881
 2019-Jan-16 07:07  m  15 06 39.445853 -16 19 56.59782
 2019-Jan-16 07:08  m  15 06 39.543526 -16 19 57.14689
 2019-Jan-16 07:09  m  15 06 39.641194 -16 19 57.69602
 2019-Jan-16 07:10  m  15 06 39.738855 -16 19 58.24521
 2019-Jan-16 07:11  m  15 06 39.836510 -16 19 58.79446
 2019-Jan-16 07:12  m  15 06 39.934159 -16 19 59.34376
 2019-Jan-16 07:13  m  15 06 40.031801 -16 19 59.89312
 2019-Jan-16 07:14  m  15 06 40.129437 -16 20 00.44254
 2019-Jan-16 07:15  m  15 06 40.227067 -16 20 00.99202
 2019-Jan-16 07:16  m  15 06 40.324689 -16 20 01.54155
 2019-Jan-16 07:17  m  15 06 40.422305 -16 20 02.09114
 2019-Jan-16 07:18  m  15 06 40.519915 -16 20 02.64079
 2019-Jan-16 07:19  m  15 06 40.617517 -16 20 03.19050
 2019-Jan-16 07:20  m  15 06 40.715113 -16 20 03.74026
 2019-Jan-16 07:21  m  15 06 40.812702 -16 20 04.29008
 2019-Jan-16 07:22  m  15 06 40.910284 -16 20 04.83996
 2019-Jan-16 07:23  m  15 06 41.007859 -16 20 05.38989
 2019-Jan-16 07:24  m  15 06 41.105426 -16 20 05.93988
 2019-Jan-16 07:25  m  15 06 41.202987 -16 20 06.48993
 2019-Jan-16 07:26  m  15 06 41.300540 -16 20 07.04003
 2019-Jan-16 07:27  m  15 06 41.398086 -16 20 07.59019
 2019-Jan-16 07:28  m  15 06 41.495624 -16 20 08.14040
 2019-Jan-16 07:29  m  15 06 41.593155 -16 20 08.69068
 2019-Jan-16 07:30  m  15 06 41.690679 -16 20 09.24100
 2019-Jan-16 07:31  m  15 06 41.788194 -16 20 09.79139
 2019-Jan-16 07:32  m  15 06 41.885703 -16 20 10.34182
 2019-Jan-16 07:33  m  15 06 41.983203 -16 20 10.89232
 2019-Jan-16 07:34  m  15 06 42.080696 -16 20 11.44287
 2019-Jan-16 07:35  m  15 06 42.178181 -16 20 11.99347
 2019-Jan-16 07:36  m  15 06 42.275657 -16 20 12.54413
 2019-Jan-16 07:37  m  15 06 42.373126 -16 20 13.09485
 2019-Jan-16 07:38  m  15 06 42.470587 -16 20 13.64561
 2019-Jan-16 07:39  m  15 06 42.568040 -16 20 14.19644
 2019-Jan-16 07:40  m  15 06 42.665484 -16 20 14.74732
 2019-Jan-16 07:41  m  15 06 42.762921 -16 20 15.29825
 2019-Jan-16 07:42  m  15 06 42.860349 -16 20 15.84924
 2019-Jan-16 07:43  m  15 06 42.957768 -16 20 16.40028
 2019-Jan-16 07:44  m  15 06 43.055179 -16 20 16.95137
 2019-Jan-16 07:45  m  15 06 43.152582 -16 20 17.50252
 2019-Jan-16 07:46  m  15 06 43.249976 -16 20 18.05372
 2019-Jan-16 07:47  m  15 06 43.347361 -16 20 18.60498
 2019-Jan-16 07:48  m  15 06 43.444738 -16 20 19.15629
 2019-Jan-16 07:49  m  15 06 43.542106 -16 20 19.70765
 2019-Jan-16 07:50  m  15 06 43.639465 -16 20 20.25907
 2019-Jan-16 07:51  m  15 06 43.736815 -16 20 20.81054
 2019-Jan-16 07:52  m  15 06 43.834156 -16 20 21.36206
 2019-Jan-16 07:53  m  15 06 43.931489 -16 20 21.91363
 2019-Jan-16 07:54  m  15 06 44.028812 -16 20 22.46526
 2019-Jan-16 07:55  m  15 06 44.126126 -16 20 23.01694
 2019-Jan-16 07:56  m  15 06 44.223431 -16 20 23.56867
 2019-Jan-16 07:57  m  15 06 44.320726 -16 20 24.12045
 2019-Jan-16 07:58  m  15 06 44.418012 -16 20 24.67229
 2019-Jan-16 07:59  m  15 06 44.515289 -16 20 25.22417
 2019-Jan-16 08:00  m  15 06 44.612556 -16 20 25.77611
 2019-Jan-16 08:01  m  15 06 44.709814 -16 20 26.32810
 2019-Jan-16 08:02  m  15 06 44.807063 -16 20 26.88014
 2019-Jan-16 08:03  m  15 06 44.904301 -16 20 27.43223
 2019-Jan-16 08:04  m  15 06 45.001530 -16 20 27.98437
 2019-Jan-16 08:05  m  15 06 45.098749 -16 20 28.53656
 2019-Jan-16 08:06  m  15 06 45.195959 -16 20 29.08881
 2019-Jan-16 08:07  m  15 06 45.293158 -16 20 29.64110
 2019-Jan-16 08:08  m  15 06 45.390348 -16 20 30.19344
 2019-Jan-16 08:09  m  15 06 45.487527 -16 20 30.74584
 2019-Jan-16 08:10  m  15 06 45.584697 -16 20 31.29828
 2019-Jan-16 08:11  m  15 06 45.681856 -16 20 31.85078
 2019-Jan-16 08:12  m  15 06 45.779005 -16 20 32.40332
 2019-Jan-16 08:13  m  15 06 45.876144 -16 20 32.95591
 2019-Jan-16 08:14  m  15 06 45.973273 -16 20 33.50855
 2019-Jan-16 08:15  m  15 06 46.070391 -16 20 34.06124
 2019-Jan-16 08:16  m  15 06 46.167499 -16 20 34.61398
 2019-Jan-16 08:17  m  15 06 46.264596 -16 20 35.16677
 2019-Jan-16 08:18  m  15 06 46.361683 -16 20 35.71960
